{
  "type": "FeatureCollection",
  "features": [
    {
      "type": "Feature",
      "properties": {
        "norad_id": 67105,
        "name": "STARLINK-36261",
        "group": "last-30-days",
        "lat": 11.464402164510469,
        "lon": 32.80908604629359,
        "alt_km": 344.918442850073,
        "timestamp": "2025-12-27T15:27:09.834120+00:00",
        "meta_object_name": "STARLINK-36261",
        "meta_object_id": "2025-299D",
        "meta_epoch": "2025-12-27T06:00:02.000160",
        "meta_mean_motion": 15.76080269,
        "meta_eccentricity": 0.00017215,
        "meta_inclination": 42.9985,
        "meta_ra_of_asc_node": 227.771,
        "meta_arg_of_pericenter": 277.4731,
        "meta_mean_anomaly": 169.342,
        "meta_ephemeris_type": 0,
        "meta_classification_type": "U",
        "meta_norad_cat_id": 67105,
        "meta_element_set_no": 999,
        "meta_rev_at_epoch": 314,
        "meta_bstar": -0.013356453,
        "meta_mean_motion_dot": -0.01873243,
        "meta_mean_motion_ddot": 0,
        "tle_line1": "1 67105U 25299D   25361.25002315 -.01873243  00000+0 -13356-1 0  9999",
        "tle_line2": "2 67105  42.9985 227.7710 0001721 277.4731 169.3420 15.76080269  3143"
      },
      "geometry": {
        "type": "Point",
        "coordinates": [
          32.80908604629359,
          11.464402164510469
        ]
      }
    },
    {
      "type": "Feature",
      "properties": {
        "norad_id": 67106,
        "name": "STARLINK-36259",
        "group": "last-30-days",
        "lat": 9.165978917119677,
        "lon": 35.39939066961531,
        "alt_km": 344.9275674282799,
        "timestamp": "2025-12-27T15:27:09.834130+00:00",
        "meta_object_name": "STARLINK-36259",
        "meta_object_id": "2025-299E",
        "meta_epoch": "2025-12-27T06:00:02.000160",
        "meta_mean_motion": 15.76096637,
        "meta_eccentricity": 0.00016319,
        "meta_inclination": 42.9986,
        "meta_ra_of_asc_node": 227.7622,
        "meta_arg_of_pericenter": 270.275,
        "meta_mean_anomaly": 179.9533,
        "meta_ephemeris_type": 0,
        "meta_classification_type": "U",
        "meta_norad_cat_id": 67106,
        "meta_element_set_no": 999,
        "meta_rev_at_epoch": 314,
        "meta_bstar": -0.013338455,
        "meta_mean_motion_dot": -0.01872157,
        "meta_mean_motion_ddot": 0,
        "tle_line1": "1 67106U 25299E   25361.25002315 -.01872157  00000+0 -13338-1 0  9993",
        "tle_line2": "2 67106  42.9986 227.7622 0001631 270.2750 179.9533 15.76096637  3147"
      },
      "geometry": {
        "type": "Point",
        "coordinates": [
          35.39939066961531,
          9.165978917119677
        ]
      }
    },
    {
      "type": "Feature",
      "properties": {
        "norad_id": 67107,
        "name": "STARLINK-36196",
        "group": "last-30-days",
        "lat": 10.356824430917557,
        "lon": 34.065191379906345,
        "alt_km": 344.8293846477827,
        "timestamp": "2025-12-27T15:27:09.834140+00:00",
        "meta_object_name": "STARLINK-36196",
        "meta_object_id": "2025-299F",
        "meta_epoch": "2025-12-27T06:00:02.000160",
        "meta_mean_motion": 15.760947,
        "meta_eccentricity": 0.00015896,
        "meta_inclination": 42.9987,
        "meta_ra_of_asc_node": 227.7669,
        "meta_arg_of_pericenter": 271.6484,
        "meta_mean_anomaly": 176.8071,
        "meta_ephemeris_type": 0,
        "meta_classification_type": "U",
        "meta_norad_cat_id": 67107,
        "meta_element_set_no": 999,
        "meta_rev_at_epoch": 314,
        "meta_bstar": -0.013361061,
        "meta_mean_motion_dot": -0.01874733,
        "meta_mean_motion_ddot": 0,
        "tle_line1": "1 67107U 25299F   25361.25002315 -.01874733  00000+0 -13361-1 0  9992",
        "tle_line2": "2 67107  42.9987 227.7669 0001589 271.6484 176.8071 15.76094700  3143"
      },
      "geometry": {
        "type": "Point",
        "coordinates": [
          34.065191379906345,
          10.356824430917557
        ]
      }
    },
    {
      "type": "Feature",
      "properties": {
        "norad_id": 67108,
        "name": "STARLINK-36208",
        "group": "last-30-days",
        "lat": 7.975288569341167,
        "lon": 36.71896443368001,
        "alt_km": 345.02488765228645,
        "timestamp": "2025-12-27T15:27:09.834152+00:00",
        "meta_object_name": "STARLINK-36208",
        "meta_object_id": "2025-299G",
        "meta_epoch": "2025-12-27T06:00:02.000160",
        "meta_mean_motion": 15.76105665,
        "meta_eccentricity": 0.00016214,
        "meta_inclination": 42.9986,
        "meta_ra_of_asc_node": 227.7574,
        "meta_arg_of_pericenter": 269.85,
        "meta_mean_anomaly": 182.1354,
        "meta_ephemeris_type": 0,
        "meta_classification_type": "U",
        "meta_norad_cat_id": 67108,
        "meta_element_set_no": 999,
        "meta_rev_at_epoch": 314,
        "meta_bstar": -0.013340336,
        "meta_mean_motion_dot": -0.01873033,
        "meta_mean_motion_ddot": 0,
        "tle_line1": "1 67108U 25299G   25361.25002315 -.01873033  00000+0 -13340-1 0  9992",
        "tle_line2": "2 67108  42.9986 227.7574 0001621 269.8500 182.1354 15.76105665  3140"
      },
      "geometry": {
        "type": "Point",
        "coordinates": [
          36.71896443368001,
          7.975288569341167
        ]
      }
    },
    {
      "type": "Feature",
      "properties": {
        "norad_id": 67109,
        "name": "STARLINK-35764",
        "group": "last-30-days",
        "lat": 6.716814319247916,
        "lon": 38.10111741964937,
        "alt_km": 345.3426074174513,
        "timestamp": "2025-12-27T15:27:09.834165+00:00",
        "meta_object_name": "STARLINK-35764",
        "meta_object_id": "2025-299H",
        "meta_epoch": "2025-12-27T06:00:02.000160",
        "meta_mean_motion": 15.76080381,
        "meta_eccentricity": 0.0001929,
        "meta_inclination": 42.9984,
        "meta_ra_of_asc_node": 227.7531,
        "meta_arg_of_pericenter": 274.7554,
        "meta_mean_anomaly": 179.1104,
        "meta_ephemeris_type": 0,
        "meta_classification_type": "U",
        "meta_norad_cat_id": 67109,
        "meta_element_set_no": 999,
        "meta_rev_at_epoch": 303,
        "meta_bstar": -0.013099594,
        "meta_mean_motion_dot": -0.01842062,
        "meta_mean_motion_ddot": 0,
        "tle_line1": "1 67109U 25299H   25361.25002315 -.01842062  00000+0 -13100-1 0  9995",
        "tle_line2": "2 67109  42.9984 227.7531 0001929 274.7554 179.1104 15.76080381  3031"
      },
      "geometry": {
        "type": "Point",
        "coordinates": [
          38.10111741964937,
          6.716814319247916
        ]
      }
    },
    {
      "type": "Feature",
      "properties": {
        "norad_id": 67110,
        "name": "STARLINK-35781",
        "group": "last-30-days",
        "lat": 4.241445847489062,
        "lon": 40.78805881474713,
        "alt_km": 345.39316719954877,
        "timestamp": "2025-12-27T15:27:09.834175+00:00",
        "meta_object_name": "STARLINK-35781",
        "meta_object_id": "2025-299J",
        "meta_epoch": "2025-12-27T06:00:02.000160",
        "meta_mean_motion": 15.76118896,
        "meta_eccentricity": 0.00015025,
        "meta_inclination": 42.9987,
        "meta_ra_of_asc_node": 227.744,
        "meta_arg_of_pericenter": 270.5019,
        "meta_mean_anomaly": 186.9768,
        "meta_ephemeris_type": 0,
        "meta_classification_type": "U",
        "meta_norad_cat_id": 67110,
        "meta_element_set_no": 999,
        "meta_rev_at_epoch": 309,
        "meta_bstar": -0.013333596,
        "meta_mean_motion_dot": -0.01873065,
        "meta_mean_motion_ddot": 0,
        "tle_line1": "1 67110U 25299J   25361.25002315 -.01873065  00000+0 -13334-1 0  9993",
        "tle_line2": "2 67110  42.9987 227.7440 0001502 270.5019 186.9768 15.76118896  3093"
      },
      "geometry": {
        "type": "Point",
        "coordinates": [
          40.78805881474713,
          4.241445847489062
        ]
      }
    },
    {
      "type": "Feature",
      "properties": {
        "norad_id": 67111,
        "name": "STARLINK-35875",
        "group": "last-30-days",
        "lat": 5.453676458583656,
        "lon": 39.47659631329872,
        "alt_km": 345.3188712295423,
        "timestamp": "2025-12-27T15:27:09.834188+00:00",
        "meta_object_name": "STARLINK-35875",
        "meta_object_id": "2025-299K",
        "meta_epoch": "2025-12-27T06:00:02.000160",
        "meta_mean_motion": 15.76112103,
        "meta_eccentricity": 0.00016006,
        "meta_inclination": 42.9986,
        "meta_ra_of_asc_node": 227.7484,
        "meta_arg_of_pericenter": 271.1116,
        "meta_mean_anomaly": 184.5944,
        "meta_ephemeris_type": 0,
        "meta_classification_type": "U",
        "meta_norad_cat_id": 67111,
        "meta_element_set_no": 999,
        "meta_rev_at_epoch": 303,
        "meta_bstar": -0.013359486,
        "meta_mean_motion_dot": -0.01875817,
        "meta_mean_motion_ddot": 0,
        "tle_line1": "1 67111U 25299K   25361.25002315 -.01875817  00000+0 -13359-1 0  9998",
        "tle_line2": "2 67111  42.9986 227.7484 0001600 271.1116 184.5944 15.76112103  3034"
      },
      "geometry": {
        "type": "Point",
        "coordinates": [
          39.47659631329872,
          5.453676458583656
        ]
      }
    }
  ]
}